GLOBALSTAR M096 [+]     
1 39075U 13005D   24114.27702706 -.00000097  00000+0  38844-4 0  9993
2 39075  52.0079  68.8029 0000818  56.9301 303.1645 12.62264585518268
GLOBALSTAR M078 [+]     
1 39076U 13005E   24114.40959396 -.00000057  00000+0  25843-3 0  9998
2 39076  51.9850 153.4873 0000822 346.3832  13.7012 12.62262610516900
GLOBALSTAR M095 [+]     
1 39077U 13005F   24114.27679718 -.00000052  00000+0  28695-3 0  9994
2 39077  51.9778 151.2913 0000677  30.6804 329.4101 12.62265647516742
